{
  "type": "FeatureCollection",
  "features": [
    {
      "type": "Feature",
      "properties": {
        "norad_id": 41330,
        "name": "COSMOS 2514 (751)",
        "group": "glo-ops",
        "lat": -4.028278612228753,
        "lon": 140.7467391451073,
        "alt_km": 19107.123212286075,
        "timestamp": "2025-12-27T18:38:03.739316+00:00",
        "meta_object_name": "COSMOS 2514 (751)",
        "meta_object_id": "2016-008A",
        "meta_epoch": "2025-12-27T01:35:56.250528",
        "meta_mean_motion": 2.13102531,
        "meta_eccentricity": 0.00114841,
        "meta_inclination": 65.1254,
        "meta_ra_of_asc_node": 318.9135,
        "meta_arg_of_pericenter": 219.9795,
        "meta_mean_anomaly": 139.9404,
        "meta_ephemeris_type": 0,
        "meta_classification_type": "U",
        "meta_norad_cat_id": 41330,
        "meta_element_set_no": 999,
        "meta_rev_at_epoch": 7695,
        "meta_bstar": 0,
        "meta_mean_motion_dot": -3.7e-07,
        "meta_mean_motion_ddot": 0,
        "tle_line1": "1 41330U 16008A   25361.06662327 -.00000037  00000+0  00000+0 0  9994",
        "tle_line2": "2 41330  65.1254 318.9135 0011484 219.9795 139.9404  2.13102531 76951"
      },
      "geometry": {
        "type": "Point",
        "coordinates": [
          140.7467391451073,
          -4.028278612228753
        ]
      }
    },
    {
      "type": "Feature",
      "properties": {
        "norad_id": 42939,
        "name": "COSMOS 2522 (752)",
        "group": "glo-ops",
        "lat": -44.6258694668851,
        "lon": 169.01932197851457,
        "alt_km": 19133.99015184786,
        "timestamp": "2025-12-27T18:38:03.739328+00:00",
        "meta_object_name": "COSMOS 2522 (752)",
        "meta_object_id": "2017-055A",
        "meta_epoch": "2025-12-26T21:43:05.051712",
        "meta_mean_motion": 2.13102008,
        "meta_eccentricity": 0.00062768,
        "meta_inclination": 64.0768,
        "meta_ra_of_asc_node": 197.7464,
        "meta_arg_of_pericenter": 223.1199,
        "meta_mean_anomaly": 136.885,
        "meta_ephemeris_type": 0,
        "meta_classification_type": "U",
        "meta_norad_cat_id": 42939,
        "meta_element_set_no": 999,
        "meta_rev_at_epoch": 6430,
        "meta_bstar": 0,
        "meta_mean_motion_dot": 1.18e-06,
        "meta_mean_motion_ddot": 0,
        "tle_line1": "1 42939U 17055A   25360.90491958  .00000118  00000+0  00000+0 0  9994",
        "tle_line2": "2 42939  64.0768 197.7464 0006276 223.1199 136.8850  2.13102008 64307"
      },
      "geometry": {
        "type": "Point",
        "coordinates": [
          169.01932197851457,
          -44.6258694668851
        ]
      }
    },
    {
      "type": "Feature",
      "properties": {
        "norad_id": 43508,
        "name": "COSMOS 2527 (756)",
        "group": "glo-ops",
        "lat": -19.376905648737207,
        "lon": 70.41541140136292,
        "alt_km": 19140.688428282,
        "timestamp": "2025-12-27T18:38:03.739339+00:00",
        "meta_object_name": "COSMOS 2527 (756)",
        "meta_object_id": "2018-053A",
        "meta_epoch": "2025-12-25T22:15:18.516960",
        "meta_mean_motion": 2.13102285,
        "meta_eccentricity": 0.00091278,
        "meta_inclination": 65.4787,
        "meta_ra_of_asc_node": 79.6912,
        "meta_arg_of_pericenter": 228.9036,
        "meta_mean_anomaly": 131.0649,
        "meta_ephemeris_type": 0,
        "meta_classification_type": "U",
        "meta_norad_cat_id": 43508,
        "meta_element_set_no": 999,
        "meta_rev_at_epoch": 5858,
        "meta_bstar": 0,
        "meta_mean_motion_dot": -3e-08,
        "meta_mean_motion_ddot": 0,
        "tle_line1": "1 43508U 18053A   25359.92729765 -.00000003  00000+0  00000+0 0  9990",
        "tle_line2": "2 43508  65.4787  79.6912 0009127 228.9036 131.0649  2.13102285 58586"
      },
      "geometry": {
        "type": "Point",
        "coordinates": [
          70.41541140136292,
          -19.376905648737207
        ]
      }
    },
    {
      "type": "Feature",
      "properties": {
        "norad_id": 43687,
        "name": "COSMOS 2529 (757)",
        "group": "glo-ops",
        "lat": -63.60631612590706,
        "lon": 94.55589243507133,
        "alt_km": 19119.25629085252,
        "timestamp": "2025-12-27T18:38:03.739351+00:00",
        "meta_object_name": "COSMOS 2529 (757)",
        "meta_object_id": "2018-086A",
        "meta_epoch": "2025-12-26T23:06:55.462752",
        "meta_mean_motion": 2.13102033,
        "meta_eccentricity": 0.00068493,
        "meta_inclination": 64.293,
        "meta_ra_of_asc_node": 198.4076,
        "meta_arg_of_pericenter": 253.3441,
        "meta_mean_anomaly": 106.6358,
        "meta_ephemeris_type": 0,
        "meta_classification_type": "U",
        "meta_norad_cat_id": 43687,
        "meta_element_set_no": 999,
        "meta_rev_at_epoch": 5561,
        "meta_bstar": 0,
        "meta_mean_motion_dot": 1.18e-06,
        "meta_mean_motion_ddot": 0,
        "tle_line1": "1 43687U 18086A   25360.96314193  .00000118  00000+0  00000+0 0  9991",
        "tle_line2": "2 43687  64.2930 198.4076 0006849 253.3441 106.6358  2.13102033 55619"
      },
      "geometry": {
        "type": "Point",
        "coordinates": [
          94.55589243507133,
          -63.60631612590706
        ]
      }
    },
    {
      "type": "Feature",
      "properties": {
        "norad_id": 44299,
        "name": "COSMOS 2534 (758)",
        "group": "glo-ops",
        "lat": 34.030015103185214,
        "lon": -142.6853125472285,
        "alt_km": 19135.070763239466,
        "timestamp": "2025-12-27T18:38:03.739362+00:00",
        "meta_object_name": "COSMOS 2534 (758)",
        "meta_object_id": "2019-030A",
        "meta_epoch": "2025-12-27T11:49:04.620576",
        "meta_mean_motion": 2.13102152,
        "meta_eccentricity": 0.0008619,
        "meta_inclination": 64.3665,
        "meta_ra_of_asc_node": 198.3955,
        "meta_arg_of_pericenter": 283.8926,
        "meta_mean_anomaly": 256.5547,
        "meta_ephemeris_type": 0,
        "meta_classification_type": "U",
        "meta_norad_cat_id": 44299,
        "meta_element_set_no": 999,
        "meta_rev_at_epoch": 5126,
        "meta_bstar": 0,
        "meta_mean_motion_dot": 1.23e-06,
        "meta_mean_motion_ddot": 0,
        "tle_line1": "1 44299U 19030A   25361.49241459  .00000123  00000+0  00000+0 0  9990",
        "tle_line2": "2 44299  64.3665 198.3955 0008619 283.8926 256.5547  2.13102152 51267"
      },
      "geometry": {
        "type": "Point",
        "coordinates": [
          -142.6853125472285,
          34.030015103185214
        ]
      }
    },
    {
      "type": "Feature",
      "properties": {
        "norad_id": 44850,
        "name": "COSMOS 2544 (759)",
        "group": "glo-ops",
        "lat": 19.109108194442946,
        "lon": 88.55749821105354,
        "alt_km": 19151.73742748217,
        "timestamp": "2025-12-27T18:38:03.739373+00:00",
        "meta_object_name": "COSMOS 2544 (759)",
        "meta_object_id": "2019-088A",
        "meta_epoch": "2025-12-27T06:42:41.595840",
        "meta_mean_motion": 2.13102058,
        "meta_eccentricity": 0.001444,
        "meta_inclination": 65.467,
        "meta_ra_of_asc_node": 79.4725,
        "meta_arg_of_pericenter": 250.8166,
        "meta_mean_anomaly": 109.0715,
        "meta_ephemeris_type": 0,
        "meta_classification_type": "U",
        "meta_norad_cat_id": 44850,
        "meta_element_set_no": 999,
        "meta_rev_at_epoch": 4705,
        "meta_bstar": 0,
        "meta_mean_motion_dot": -1.2e-07,
        "meta_mean_motion_ddot": 0,
        "tle_line1": "1 44850U 19088A   25361.27964810 -.00000012  00000+0  00000+0 0  9993",
        "tle_line2": "2 44850  65.4670  79.4725 0014440 250.8166 109.0715  2.13102058 47057"
      },
      "geometry": {
        "type": "Point",
        "coordinates": [
          88.55749821105354,
          19.109108194442946
        ]
      }
    },
    {
      "type": "Feature",
      "properties": {
        "norad_id": 45358,
        "name": "COSMOS 2545 (760)",
        "group": "glo-ops",
        "lat": -44.41618561488728,
        "lon": 166.3433216657115,
        "alt_km": 19108.215270525845,
        "timestamp": "2025-12-27T18:38:03.739385+00:00",
        "meta_object_name": "COSMOS 2545 (760)",
        "meta_object_id": "2020-018A",
        "meta_epoch": "2025-12-27T00:08:46.380768",
        "meta_mean_motion": 2.13102633,
        "meta_eccentricity": 0.00112617,
        "meta_inclination": 64.4611,
        "meta_ra_of_asc_node": 318.4699,
        "meta_arg_of_pericenter": 250.7863,
        "meta_mean_anomaly": 109.0965,
        "meta_ephemeris_type": 0,
        "meta_classification_type": "U",
        "meta_norad_cat_id": 45358,
        "meta_element_set_no": 999,
        "meta_rev_at_epoch": 4499,
        "meta_bstar": 0,
        "meta_mean_motion_dot": -3.8e-07,
        "meta_mean_motion_ddot": 0,
        "tle_line1": "1 45358U 20018A   25361.00609237 -.00000038  00000+0  00000+0 0  9990",
        "tle_line2": "2 45358  64.4611 318.4699 0011261 250.7863 109.0965  2.13102633 44998"
      },
      "geometry": {
        "type": "Point",
        "coordinates": [
          166.3433216657115,
          -44.41618561488728
        ]
      }
    }
  ]
}